HAWK-12A                
1 64623U 25138C   26200.26933296  .00002064  00000+0  10336-3 0  9997
2 64623  97.4417 202.5223 0014725  33.3634 326.8525 15.18420428 58731
HAWK-13A                
1 67392U 26004AF  26200.26988746  .00002185  00000+0  10652-3 0  9991
2 67392  97.4450 198.6865 0004538 201.9068 158.1974 15.19376270 28632
HAWK-13C                
1 67393U 26004AG  26200.26974589  .00002192  00000+0  10685-3 0  9996
2 67393  97.4597 199.1186 0004367 205.3406 154.7615 15.19372788 28635
HAWK-13B                
1 67396U 26004AK  26199.94035846  .00002267  00000+0  11042-3 0  9996
2 67396  97.4536 198.6134 0005580 208.6700 151.4228 15.19373976 28587
HAWK-14B                
1 68436U 26067W   26199.84886084  .00002173  00000+0  10882-3 0  9995
2 68436  97.4565 157.8500 0001147 344.7505  15.3694 15.18447463 16741
HAWK-14C                
1 68441U 26067AB  26199.84896728  .00002180  00000+0  10915-3 0  9992
2 68441  97.4504 157.7275 0002214  15.5215 344.6087 15.18445338 16748
HAWK-14A                
1 68448U 26067AJ  26200.11267341  .00002212  00000+0  11071-3 0  9995
2 68448  97.4628 158.2396 0002840   3.5293 356.5961 15.18450050 16784
