{"fetched_at":"2026-07-19T17:31:34.517Z","source":"https://celestrak.org/NORAD/elements/gp.php?NAME=HAWK&FORMAT=JSON","constellation":"hawkeye-360","records":[{"OBJECT_NAME":"HAWK-12A","OBJECT_ID":"2025-138C","EPOCH":"2026-07-19T06:27:50.367744","CLASSIFICATION_TYPE":"U","MEAN_MOTION":15.18420428,"ECCENTRICITY":0.00147255,"INCLINATION":97.4417,"RA_OF_ASC_NODE":202.5223,"ARG_OF_PERICENTER":33.3634,"MEAN_ANOMALY":326.8525,"EPHEMERIS_TYPE":0,"NORAD_CAT_ID":64623,"ELEMENT_SET_NO":999,"REV_AT_EPOCH":5873,"BSTAR":0.00010336257,"MEAN_MOTION_DOT":0.00002064,"MEAN_MOTION_DDOT":0},{"OBJECT_NAME":"HAWK-13A","OBJECT_ID":"2026-004AF","EPOCH":"2026-07-19T06:28:38.276544","CLASSIFICATION_TYPE":"U","MEAN_MOTION":15.1937627,"ECCENTRICITY":0.00045384,"INCLINATION":97.445,"RA_OF_ASC_NODE":198.6865,"ARG_OF_PERICENTER":201.9068,"MEAN_ANOMALY":158.1974,"EPHEMERIS_TYPE":0,"NORAD_CAT_ID":67392,"ELEMENT_SET_NO":999,"REV_AT_EPOCH":2863,"BSTAR":0.00010651995,"MEAN_MOTION_DOT":0.00002185,"MEAN_MOTION_DDOT":0},{"OBJECT_NAME":"HAWK-13C","OBJECT_ID":"2026-004AG","EPOCH":"2026-07-19T06:28:26.044896","CLASSIFICATION_TYPE":"U","MEAN_MOTION":15.19372788,"ECCENTRICITY":0.00043675,"INCLINATION":97.4597,"RA_OF_ASC_NODE":199.1186,"ARG_OF_PERICENTER":205.3406,"MEAN_ANOMALY":154.7615,"EPHEMERIS_TYPE":0,"NORAD_CAT_ID":67393,"ELEMENT_SET_NO":999,"REV_AT_EPOCH":2863,"BSTAR":0.00010685113,"MEAN_MOTION_DOT":0.00002192,"MEAN_MOTION_DDOT":0},{"OBJECT_NAME":"HAWK-13B","OBJECT_ID":"2026-004AK","EPOCH":"2026-07-18T22:34:06.970944","CLASSIFICATION_TYPE":"U","MEAN_MOTION":15.19373976,"ECCENTRICITY":0.00055807,"INCLINATION":97.4536,"RA_OF_ASC_NODE":198.6134,"ARG_OF_PERICENTER":208.67,"MEAN_ANOMALY":151.4228,"EPHEMERIS_TYPE":0,"NORAD_CAT_ID":67396,"ELEMENT_SET_NO":999,"REV_AT_EPOCH":2858,"BSTAR":0.00011041819,"MEAN_MOTION_DOT":0.00002267,"MEAN_MOTION_DDOT":0},{"OBJECT_NAME":"HAWK-14B","OBJECT_ID":"2026-067W","EPOCH":"2026-07-18T20:22:21.576576","CLASSIFICATION_TYPE":"U","MEAN_MOTION":15.18447463,"ECCENTRICITY":0.00011474,"INCLINATION":97.4565,"RA_OF_ASC_NODE":157.85,"ARG_OF_PERICENTER":344.7505,"MEAN_ANOMALY":15.3694,"EPHEMERIS_TYPE":0,"NORAD_CAT_ID":68436,"ELEMENT_SET_NO":999,"REV_AT_EPOCH":1674,"BSTAR":0.00010882037,"MEAN_MOTION_DOT":0.00002173,"MEAN_MOTION_DDOT":0},{"OBJECT_NAME":"HAWK-14C","OBJECT_ID":"2026-067AB","EPOCH":"2026-07-18T20:22:30.772992","CLASSIFICATION_TYPE":"U","MEAN_MOTION":15.18445338,"ECCENTRICITY":0.00022144,"INCLINATION":97.4504,"RA_OF_ASC_NODE":157.7275,"ARG_OF_PERICENTER":15.5215,"MEAN_ANOMALY":344.6087,"EPHEMERIS_TYPE":0,"NORAD_CAT_ID":68441,"ELEMENT_SET_NO":999,"REV_AT_EPOCH":1674,"BSTAR":0.00010914568,"MEAN_MOTION_DOT":0.0000218,"MEAN_MOTION_DDOT":0},{"OBJECT_NAME":"HAWK-14A","OBJECT_ID":"2026-067AJ","EPOCH":"2026-07-19T02:42:14.982624","CLASSIFICATION_TYPE":"U","MEAN_MOTION":15.1845005,"ECCENTRICITY":0.00028406,"INCLINATION":97.4628,"RA_OF_ASC_NODE":158.2396,"ARG_OF_PERICENTER":3.5293,"MEAN_ANOMALY":356.5961,"EPHEMERIS_TYPE":0,"NORAD_CAT_ID":68448,"ELEMENT_SET_NO":999,"REV_AT_EPOCH":1678,"BSTAR":0.00011070752,"MEAN_MOTION_DOT":0.00002212,"MEAN_MOTION_DDOT":0}]}
